YAOGAN-3                
1 32289U 07055A   26073.00591058  .00001453  00000+0  15498-3 0  9999
2 32289  97.8274 103.8011 0001556  82.5153 277.6242 14.90384748991689
YAOGAN-4                
1 33446U 08061A   26072.29603381  .00001560  00000+0  19828-3 0  9996
2 33446  97.9248   6.5617 0015102  28.3811 331.8222 14.82990653931458
YAOGAN-7                
1 36110U 09069A   26072.96760307  .00000780  00000+0  11518-3 0  9993
2 36110  98.0203 319.3604 0024434 349.6706  10.3999 14.77900526875566
YAOGAN-10               
1 36834U 10038A   26073.01844880  .00001670  00000+0  20204-3 0  9991
2 36834  97.9083  97.1597 0001558  88.1696 328.1159 14.85031759843082
YAOGAN-12               
1 37875U 11066B   26072.98747693  .00005235  00000+0  20944-3 0  9990
2 37875  97.1283 116.0536 0009590 194.3554 165.7414 15.25448863797522
YAOGAN-21               
1 40143U 14053A   26072.99620850  .00007749  00000+0  31280-3 0  9994
2 40143  97.1615 117.3514 0009985  74.4879 285.7462 15.25000390640442
YAOGAN-29               
1 41038U 15069A   26072.97774333  .00000878  00000+0  11476-3 0  9991
2 41038  98.0146 101.4189 0001638  30.4553 329.6755 14.83002272556516
YAOGAN-31 01A           
1 43275U 18034A   26073.00254138 -.00000090  00000+0  11273-5 0  9996
2 43275  63.3980 336.1881 0267109   7.1349 353.3361 13.45452989389296
YAOGAN-31 01B           
1 43276U 18034B   26073.00343595 -.00000047  00000+0  59414-4 0  9993
2 43276  63.3982 336.1885 0267122   7.0930 353.3758 13.45449081389416
YAOGAN-31 01C           
1 43277U 18034C   26073.00501122 -.00000126  00000+0 -48049-4 0  9997
2 43277  63.3991 335.5353 0267067   6.8355 353.6199 13.45433034389431
YAOGAN-30 06A           
1 44449U 19045A   26072.74884251  .00003504  00000+0  26314-3 0  9990
2 44449  34.9928 191.5518 0003700 175.6657 184.4083 15.02133353362251
YAOGAN-30 06B           
1 44450U 19045B   26072.79507689  .00003805  00000+0  28546-3 0  9997
2 44450  34.9916 190.8407 0009262 315.6605  44.3361 15.02122328362306
ICEYE-X6                
1 46497U 20068M   26072.93527677  .00003212  00000+0  23758-3 0  9994
2 46497  98.0932  62.1157 0008591  56.1732 304.0310 15.03931600298910
ICEYE-X30               
1 56947U 23084R   26072.95883438  .00124458  00000+0  87825-3 0  9999
2 56947  97.5700 224.5987 0005197 272.4893  87.5776 15.73665321153890
ICEYE-X26               
1 56961U 23084AF  26072.94846317  .00072931  00000+0  51425-3 0  9994
2 56961  97.5762 228.9322 0000910 244.9470 115.1699 15.73858643154173
ICEYE-X47               
1 62389U 24247N   26072.92643591  .00007060  00000+0  41522-3 0  9992
2 62389  44.9953 145.4322 0001244 284.6191  75.4548 15.12292506 67758
ICEYE-X42               
1 62698U 25009CT  26072.96396150  .00003212  00000+0  32354-3 0  9990
2 62698  97.7388 152.9884 0001233 114.5043 245.6305 14.91846966 63096
ICEYE-X41               
1 62700U 25009CV  26072.98542448  .00003761  00000+0  33944-3 0  9994
2 62700  97.7117 153.9314 0001677  40.0054 320.1291 14.96111406 63177
ICEYE-X45               
1 62705U 25009DA  26072.19079274  .00003983  00000+0  31790-3 0  9997
2 62705  97.8062 158.3012 0000987  72.3822 287.7509 15.00865736 63280
