[ {"OBJECT_NAME": "ICEYE-X6", "NORAD_CAT_ID": 46497, "MEAN_MOTION": 15.039316, "ECCENTRICITY": 0.0008591, "INCLINATION": 98.0932, "RA_OF_ASC_NODE": 62.1157, "ARG_OF_PERICENTER": 56.1732, "MEAN_ANOMALY": 304.031, "BSTAR": 0.00023758, "EPOCH": "2026-03-13T22:26:47"}, {"OBJECT_NAME": "ICEYE-X47", "NORAD_CAT_ID": 62389, "MEAN_MOTION": 15.12292506, "ECCENTRICITY": 0.0001244, "INCLINATION": 44.9953, "RA_OF_ASC_NODE": 145.4322, "ARG_OF_PERICENTER": 284.6191, "MEAN_ANOMALY": 75.4548, "BSTAR": 0.00041522, "EPOCH": "2026-03-13T22:14:04"}, {"OBJECT_NAME": "ICEYE-X30", "NORAD_CAT_ID": 56947, "MEAN_MOTION": 15.73665321, "ECCENTRICITY": 0.0005197, "INCLINATION": 97.57, "RA_OF_ASC_NODE": 224.5987, "ARG_OF_PERICENTER": 272.4893, "MEAN_ANOMALY": 87.5776, "BSTAR": 0.00087825, "EPOCH": "2026-03-13T23:00:43"}, {"OBJECT_NAME": "ICEYE-X42", "NORAD_CAT_ID": 62698, "MEAN_MOTION": 14.91846966, "ECCENTRICITY": 0.0001233, "INCLINATION": 97.7388, "RA_OF_ASC_NODE": 152.9884, "ARG_OF_PERICENTER": 114.5043, "MEAN_ANOMALY": 245.6305, "BSTAR": 0.00032354, "EPOCH": "2026-03-13T23:08:06"}, {"OBJECT_NAME": "ICEYE-X41", "NORAD_CAT_ID": 62700, "MEAN_MOTION": 14.96111406, "ECCENTRICITY": 0.0001677, "INCLINATION": 97.7117, "RA_OF_ASC_NODE": 153.9314, "ARG_OF_PERICENTER": 40.0054, "MEAN_ANOMALY": 320.1291, "BSTAR": 0.00033944000000000004, "EPOCH": "2026-03-13T23:39:00"}, {"OBJECT_NAME": "ICEYE-X26", "NORAD_CAT_ID": 56961, "MEAN_MOTION": 15.73858643, "ECCENTRICITY": 9.1e-05, "INCLINATION": 97.5762, "RA_OF_ASC_NODE": 228.9322, "ARG_OF_PERICENTER": 244.947, "MEAN_ANOMALY": 115.1699, "BSTAR": 0.00051425, "EPOCH": "2026-03-13T22:45:47"}, {"OBJECT_NAME": "ICEYE-X45", "NORAD_CAT_ID": 62705, "MEAN_MOTION": 15.00865736, "ECCENTRICITY": 9.87e-05, "INCLINATION": 97.8062, "RA_OF_ASC_NODE": 158.3012, "ARG_OF_PERICENTER": 72.3822, "MEAN_ANOMALY": 287.7509, "BSTAR": 0.00031790000000000003, "EPOCH": "2026-03-13T04:34:44"}, {"OBJECT_NAME": "YAOGAN-29", "NORAD_CAT_ID": 41038, "MEAN_MOTION": 14.83002272, "ECCENTRICITY": 0.0001638, "INCLINATION": 98.0146, "RA_OF_ASC_NODE": 101.4189, "ARG_OF_PERICENTER": 30.4553, "MEAN_ANOMALY": 329.6755, "BSTAR": 0.00011476, "EPOCH": "2026-03-13T23:27:57"}, {"OBJECT_NAME": "YAOGAN-3", "NORAD_CAT_ID": 32289, "MEAN_MOTION": 14.90384748, "ECCENTRICITY": 0.0001556, "INCLINATION": 97.8274, "RA_OF_ASC_NODE": 103.8011, "ARG_OF_PERICENTER": 82.5153, "MEAN_ANOMALY": 277.6242, "BSTAR": 0.00015498, "EPOCH": "2026-03-14T00:08:30"}, {"OBJECT_NAME": "YAOGAN-4", "NORAD_CAT_ID": 33446, "MEAN_MOTION": 14.82990653, "ECCENTRICITY": 0.0015102, "INCLINATION": 97.9248, "RA_OF_ASC_NODE": 6.5617, "ARG_OF_PERICENTER": 28.3811, "MEAN_ANOMALY": 331.8222, "BSTAR": 0.00019828, "EPOCH": "2026-03-13T07:06:17"}, {"OBJECT_NAME": "YAOGAN-7", "NORAD_CAT_ID": 36110, "MEAN_MOTION": 14.77900526, "ECCENTRICITY": 0.0024434, "INCLINATION": 98.0203, "RA_OF_ASC_NODE": 319.3604, "ARG_OF_PERICENTER": 349.6706, "MEAN_ANOMALY": 10.3999, "BSTAR": 0.00011518, "EPOCH": "2026-03-13T23:13:20"}, {"OBJECT_NAME": "YAOGAN-21", "NORAD_CAT_ID": 40143, "MEAN_MOTION": 15.2500039, "ECCENTRICITY": 0.0009985, "INCLINATION": 97.1615, "RA_OF_ASC_NODE": 117.3514, "ARG_OF_PERICENTER": 74.4879, "MEAN_ANOMALY": 285.7462, "BSTAR": 0.0003128, "EPOCH": "2026-03-13T23:54:32"}, {"OBJECT_NAME": "YAOGAN-10", "NORAD_CAT_ID": 36834, "MEAN_MOTION": 14.85031759, "ECCENTRICITY": 0.0001558, "INCLINATION": 97.9083, "RA_OF_ASC_NODE": 97.1597, "ARG_OF_PERICENTER": 88.1696, "MEAN_ANOMALY": 328.1159, "BSTAR": 0.00020204, "EPOCH": "2026-03-14T00:26:33"}, {"OBJECT_NAME": "YAOGAN-12", "NORAD_CAT_ID": 37875, "MEAN_MOTION": 15.25448863, "ECCENTRICITY": 0.000959, "INCLINATION": 97.1283, "RA_OF_ASC_NODE": 116.0536, "ARG_OF_PERICENTER": 194.3554, "MEAN_ANOMALY": 165.7414, "BSTAR": 0.00020944, "EPOCH": "2026-03-13T23:41:58"}, {"OBJECT_NAME": "YAOGAN-31 01A", "NORAD_CAT_ID": 43275, "MEAN_MOTION": 13.45452989, "ECCENTRICITY": 0.0267109, "INCLINATION": 63.398, "RA_OF_ASC_NODE": 336.1881, "ARG_OF_PERICENTER": 7.1349, "MEAN_ANOMALY": 353.3361, "BSTAR": 1.1273e-06, "EPOCH": "2026-03-14T00:03:39"}, {"OBJECT_NAME": "YAOGAN-31 01B", "NORAD_CAT_ID": 43276, "MEAN_MOTION": 13.45449081, "ECCENTRICITY": 0.0267122, "INCLINATION": 63.3982, "RA_OF_ASC_NODE": 336.1885, "ARG_OF_PERICENTER": 7.093, "MEAN_ANOMALY": 353.3758, "BSTAR": 5.9414000000000004e-05, "EPOCH": "2026-03-14T00:04:56"}, {"OBJECT_NAME": "YAOGAN-31 01C", "NORAD_CAT_ID": 43277, "MEAN_MOTION": 13.45433034, "ECCENTRICITY": 0.0267067, "INCLINATION": 63.3991, "RA_OF_ASC_NODE": 335.5353, "ARG_OF_PERICENTER": 6.8355, "MEAN_ANOMALY": 353.6199, "BSTAR": -4.8049e-05, "EPOCH": "2026-03-14T00:07:12"}, {"OBJECT_NAME": "YAOGAN-30 06A", "NORAD_CAT_ID": 44449, "MEAN_MOTION": 15.02133353, "ECCENTRICITY": 0.00037, "INCLINATION": 34.9928, "RA_OF_ASC_NODE": 191.5518, "ARG_OF_PERICENTER": 175.6657, "MEAN_ANOMALY": 184.4083, "BSTAR": 0.00026314, "EPOCH": "2026-03-13T17:58:19"}, {"OBJECT_NAME": "YAOGAN-30 06B", "NORAD_CAT_ID": 44450, "MEAN_MOTION": 15.02122328, "ECCENTRICITY": 0.0009262, "INCLINATION": 34.9916, "RA_OF_ASC_NODE": 190.8407, "ARG_OF_PERICENTER": 315.6605, "MEAN_ANOMALY": 44.3361, "BSTAR": 0.00028546, "EPOCH": "2026-03-13T19:04:54"}]